NORAD_CAT_ID,OBJECT_NAME,OBJECT_TYPE,EPOCH,MEAN_MOTION,ECCENTRICITY,INCLINATION,RA_OF_ASC_NODE,ARG_OF_PERICENTER,MEAN_ANOMALY,BSTAR,MEAN_MOTION_DOT,MEAN_MOTION_DDOT,TLE_LINE0,TLE_LINE1,TLE_LINE2,SEMIMAJOR_AXIS,PERIOD,APOGEE,PERIGEE,DECAYED
51857.0,STARLINK-3571,PAYLOAD,2023-06-06 07:44:49,15.08833695,5.42e-05,53.2159,221.3647,47.6189,312.4849,4.2447e-05,3.88e-06,0.0,0 STARLINK-3571,1 51857U 22022F   23157.32279848  .00000388  00000-0  42447-4 0  9999,2 51857  53.2159 221.3647 0000542  47.6189 312.4849 15.08833695 70943,6917.9,95.438,540.14,539.39,0.0
51857.0,STARLINK-3571,PAYLOAD,2023-06-06 10:55:35,15.08837032,4.86e-05,53.216,220.7694,49.1995,310.9039,5.8977e-05,6.51e-06,0.0,0 STARLINK-3571,1 51857U 22022F   23157.45527571  .00000651  00000-0  58977-4 0  9990,2 51857  53.2160 220.7694 0000486  49.1995 310.9039 15.08837032 70964,6917.889,95.438,540.091,539.418,0.0
51857.0,STARLINK-3571,PAYLOAD,2023-06-07 12:21:45,15.0884306,4.62e-05,53.2159,216.0111,71.7955,288.3087,-2.6474e-06,-3.3e-06,0.0,0 STARLINK-3571,1 51857U 22022F   23158.51511267 -.00000330  00000-0 -26474-5 0  9997,2 51857  53.2159 216.0111 0000462  71.7955 288.3087 15.08843060 71123,6917.871,95.437,540.056,539.416,0.0
51857.0,STARLINK-3571,PAYLOAD,2023-06-07 20:18:41,15.08842428,4.08e-05,53.2157,214.5238,110.4725,249.6311,-5.6499e-05,-1.187e-05,0.0,0 STARLINK-3571,1 51857U 22022F   23158.84631337 -.00001187  00000-0 -56499-4 0  9994,2 51857  53.2157 214.5238 0000408 110.4725 249.6311 15.08842428 71172,6917.873,95.437,540.02,539.456,0.0
51857.0,STARLINK-3571,PAYLOAD,2023-06-08 09:01:46,15.08831134,5.94e-05,53.2155,212.1449,79.2284,280.8775,0.00013558,1.87e-05,0.0,0 STARLINK-3571,1 51857U 22022F   23159.37623764  .00001870  00000-0  13558-3 0  9993,2 51857  53.2155 212.1449 0000594  79.2284 280.8775 15.08831134 71258,6917.907,95.438,540.183,539.362,0.0
51857.0,STARLINK-3571,PAYLOAD,2023-06-08 10:37:09,15.08842325,5.47e-05,53.2156,211.8475,69.7484,290.3567,6.4944e-06,-1.84e-06,0.0,0 STARLINK-3571,1 51857U 22022F   23159.44247378 -.00000184  00000-0  64944-5 0  9999,2 51857  53.2156 211.8475 0000547  69.7484 290.3567 15.08842325 71268,6917.873,95.437,540.117,539.36,0.0
51857.0,STARLINK-3571,PAYLOAD,2023-06-08 23:20:15,15.08835103,6e-05,53.2158,209.4699,76.7667,283.3392,5.5738e-05,5.99e-06,0.0,0 STARLINK-3571,1 51857U 22022F   23159.97239895  .00000599  00000-0  55738-4 0  9991,2 51857  53.2158 209.4699 0000600  76.7667 283.3392 15.08835103 71345,6917.895,95.438,540.175,539.345,0.0
51857.0,STARLINK-3571,PAYLOAD,2023-06-09 10:27:57,15.08838221,8.53e-05,53.2159,207.3883,95.8546,264.2544,6.0768e-05,6.8e-06,0.0,0 STARLINK-3571,1 51857U 22022F   23160.43607809  .00000680  00000-0  60768-4 0  9998,2 51857  53.2159 207.3883 0000853  95.8546 264.2544 15.08838221 71415,6917.886,95.438,540.341,539.161,0.0
51857.0,STARLINK-3571,PAYLOAD,2023-06-09 20:00:16,15.08835113,4.1e-05,53.2159,205.6052,69.0736,291.0299,6.1472e-05,6.91e-06,0.0,0 STARLINK-3571,1 51857U 22022F   23160.83352015  .00000691  00000-0  61472-4 0  9993,2 51857  53.2159 205.6052 0000410  69.0736 291.0299 15.08835113 71475,6917.895,95.438,540.044,539.477,0.0
51857.0,STARLINK-3571,PAYLOAD,2023-06-10 02:21:48,15.08838036,6.93e-05,53.2162,204.4158,77.0114,283.0955,-3.0297e-06,-3.36e-06,0.0,0 STARLINK-3571,1 51857U 22022F   23161.09848209 -.00000336  00000-0 -30297-5 0  9997,2 51857  53.2162 204.4158 0000693  77.0114 283.0955 15.08838036 71517,6917.886,95.438,540.231,539.272,0.0
51857.0,STARLINK-3571,PAYLOAD,2023-06-10 11:54:07,15.08838631,6.59e-05,53.2156,202.631,65.7123,294.3938,3.3835e-05,2.51e-06,0.0,0 STARLINK-3571,1 51857U 22022F   23161.49592133  .00000251  00000-0  33835-4 0  9997,2 51857  53.2156 202.6310 0000659  65.7123 294.3938 15.08838631 71579,6917.885,95.438,540.205,539.294,0.0
51857.0,STARLINK-3571,PAYLOAD,2023-06-10 19:51:03,15.0883684,6.66e-05,53.2156,201.1442,64.4733,295.6328,3.4904e-05,2.68e-06,0.0,0 STARLINK-3571,1 51857U 22022F   23161.82712299  .00000268  00000-0  34904-4 0  9997,2 51857  53.2156 201.1442 0000666  64.4733 295.6328 15.08836840 71623,6917.89,95.438,540.216,539.294,0.0
51857.0,STARLINK-3571,PAYLOAD,2023-06-11 08:34:08,15.08837944,6.7e-05,53.2157,198.7654,64.2729,295.8332,5.7582e-05,6.29e-06,0.0,0 STARLINK-3571,1 51857U 22022F   23162.35704296  .00000629  00000-0  57582-4 0  9992,2 51857  53.2157 198.7654 0000670  64.2729 295.8332 15.08837944 71700,6917.887,95.438,540.215,539.288,0.0
51857.0,STARLINK-3571,PAYLOAD,2023-06-11 11:44:54,15.08840727,6.89e-05,53.2156,198.1704,64.0111,296.0952,5.7995e-05,6.36e-06,0.0,0 STARLINK-3571,1 51857U 22022F   23162.48952132  .00000636  00000-0  57995-4 0  9996,2 51857  53.2156 198.1704 0000689  64.0111 296.0952 15.08840727 71728,6917.878,95.438,540.22,539.267,0.0
51857.0,STARLINK-3571,PAYLOAD,2023-06-11 19:41:50,15.08839528,6.96e-05,53.2156,196.6831,63.2088,296.8975,6.2136e-05,7.01e-06,0.0,0 STARLINK-3571,1 51857U 22022F   23162.82072200  .00000701  00000-0  62136-4 0  9999,2 51857  53.2156 196.6831 0000696  63.2088 296.8975 15.08839528 71779,6917.882,95.438,540.228,539.265,0.0
51857.0,STARLINK-3571,PAYLOAD,2023-06-12 08:24:56,15.08827209,7.54e-05,53.2159,194.3033,69.2048,290.9025,1.6159e-05,-3.1e-07,0.0,0 STARLINK-3571,1 51857U 22022F   23163.35065435 -.00000031  00000-0  16159-4 0  9991,2 51857  53.2159 194.3033 0000754  69.2048 290.9025 15.08827209 71851,6917.919,95.438,540.306,539.263,0.0
51857.0,STARLINK-3571,PAYLOAD,2023-06-12 11:35:43,15.088099,0.0001031,53.2188,193.7024,194.3442,165.7521,-3.3852e-05,-8.26e-06,0.0,0 STARLINK-3571,1 51857U 22022F   23163.48314567 -.00000826  00000-0 -33852-4 0  9990,2 51857  53.2188 193.7024 0001031 194.3442 165.7521 15.08809900 71873,6917.972,95.439,540.551,539.124,0.0
51857.0,STARLINK-3571,PAYLOAD,2023-06-12 19:32:39,15.08818205,6.67e-05,53.2154,192.2219,29.3049,330.798,-8.8366e-05,-1.693e-05,0.0,0 STARLINK-3571,1 51857U 22022F   23163.81435005 -.00001693  00000-0 -88366-4 0  9991,2 51857  53.2154 192.2219 0000667  29.3049 330.7980 15.08818205 71927,6917.947,95.439,540.273,539.351,0.0
51857.0,STARLINK-3571,PAYLOAD,2023-06-13 05:04:58,15.08826162,0.0001404,53.2158,190.4382,15.0224,345.081,-1.3502e-05,-5.03e-06,0.0,0 STARLINK-3571,1 51857U 22022F   23164.21178651 -.00000503  00000-0 -13502-4 0  9996,2 51857  53.2158 190.4382 0001404  15.0224 345.0810 15.08826162 71987,6917.923,95.438,540.759,538.816,0.0
51857.0,STARLINK-3571,PAYLOAD,2023-06-13 06:40:21,15.08828881,0.0001517,53.2161,190.1407,19.5701,340.5349,1.0847e-05,-1.15e-06,0.0,0 STARLINK-3571,1 51857U 22022F   23164.27802500 -.00000115  00000-0  10847-4 0  9996,2 51857  53.2161 190.1407 0001517  19.5701 340.5349 15.08828881 71998,6917.914,95.438,540.829,538.73,0.0
51857.0,STARLINK-3571,PAYLOAD,2023-06-14 01:44:58,15.08841604,8.27e-05,53.2158,186.5703,44.3519,315.7539,0.00010932,1.453e-05,0.0,0 STARLINK-3571,1 51857U 22022F   23165.07289444  .00001453  00000-0  10932-3 0  9990,2 51857  53.2158 186.5703 0000827  44.3519 315.7539 15.08841604 72116,6917.875,95.437,540.313,539.168,0.0
51857.0,STARLINK-3571,PAYLOAD,2023-06-15 07:57:16,15.08855652,0.000131,53.2154,180.9217,28.6687,331.4377,0.00013043,1.789e-05,0.0,0 STARLINK-3571,1 51857U 22022F   23166.33144632  .00001789  00000-0  13043-3 0  9997,2 51857  53.2154 180.9217 0001310  28.6687 331.4377 15.08855652 72303,6917.833,95.437,540.604,538.791,0.0
51857.0,STARLINK-3571,PAYLOAD,2023-06-15 17:29:36,15.08848155,0.0001371,53.2154,179.1376,30.7542,329.3531,5.127e-05,5.28e-06,0.0,0 STARLINK-3571,1 51857U 22022F   23166.72889057  .00000528  00000-0  51270-4 0  9992,2 51857  53.2154 179.1376 0001371  30.7542 329.3531 15.08848155 72364,6917.855,95.437,540.669,538.772,0.0
51857.0,STARLINK-3571,PAYLOAD,2023-06-16 07:48:04,15.08846488,0.0001308,53.2164,176.4621,39.434,320.6747,-1.2971e-05,-4.94e-06,0.0,0 STARLINK-3571,1 51857U 22022F   23167.32505014 -.00000494  00000-0 -12971-4 0  9996,2 51857  53.2164 176.4621 0001308  39.4340 320.6747 15.08846488 72450,6917.861,95.437,540.63,538.821,0.0
51857.0,STARLINK-3571,PAYLOAD,2023-06-16 17:20:22,15.08850313,0.00018,53.2157,174.6769,47.3738,312.7405,1.0178e-05,-1.26e-06,0.0,0 STARLINK-3571,1 51857U 22022F   23167.72248743 -.00000126  00000-0  10178-4 0  9991,2 51857  53.2157 174.6769 0001800  47.3738 312.7405 15.08850313 72513,6917.849,95.437,540.959,538.469,0.0
51857.0,STARLINK-3571,PAYLOAD,2023-06-17 01:17:18,15.08845716,0.0001335,53.2153,173.1896,31.5099,328.5973,-4.9381e-05,-1.074e-05,0.0,0 STARLINK-3571,1 51857U 22022F   23168.05368788 -.00001074  00000-0 -49381-4 0  9992,2 51857  53.2153 173.1896 0001335  31.5099 328.5973 15.08845716 72563,6917.863,95.437,540.651,538.804,0.0
51857.0,STARLINK-3571,PAYLOAD,2023-06-17 10:49:37,15.08845882,0.00014,53.2151,171.4053,33.2017,326.9062,-3.3054e-05,-8.14e-06,0.0,0 STARLINK-3571,1 51857U 22022F   23168.45112606 -.00000814  00000-0 -33054-4 0  9993,2 51857  53.2151 171.4053 0001400  33.2017 326.9062 15.08845882 72621,6917.862,95.437,540.696,538.759,0.0
51857.0,STARLINK-3571,PAYLOAD,2023-06-17 17:11:10,15.08843347,0.0001494,53.2153,170.2154,31.6341,328.474,-7.6055e-05,-1.498e-05,0.0,0 STARLINK-3571,1 51857U 22022F   23168.71608837 -.00001498  00000-0 -76055-4 0  9995,2 51857  53.2153 170.2154 0001494  31.6341 328.4740 15.08843347 72665,6917.87,95.437,540.769,538.702,0.0
51857.0,STARLINK-3571,PAYLOAD,2023-06-18 09:05:01,15.08842344,0.000134,53.2157,167.242,50.3854,309.7256,-0.00012011,-2.199e-05,0.0,0 STARLINK-3571,1 51857U 22022F   23169.37849227 -.00002199  00000-0 -12011-3 0  9998,2 51857  53.2157 167.2420 0001340  50.3854 309.7256 15.08842344 72769,6917.873,95.437,540.665,538.811,0.0
51857.0,STARLINK-3571,PAYLOAD,2023-06-18 17:01:58,15.08803487,0.0001353,53.2159,165.7557,53.7672,306.3445,0.00048948,7.503e-05,0.0,0 STARLINK-3571,1 51857U 22022F   23169.70970479  .00007503  00000-0  48948-3 0  9999,2 51857  53.2159 165.7557 0001353  53.7672 306.3445 15.08803487 72818,6917.992,95.44,540.793,538.921,0.0
